NORAD_CAT_ID,OBJECT_NAME,OBJECT_TYPE,EPOCH,MEAN_MOTION,ECCENTRICITY,INCLINATION,RA_OF_ASC_NODE,ARG_OF_PERICENTER,MEAN_ANOMALY,BSTAR,MEAN_MOTION_DOT,MEAN_MOTION_DDOT,TLE_LINE0,TLE_LINE1,TLE_LINE2,SEMIMAJOR_AXIS,PERIOD,APOGEE,PERIGEE,DECAYED
54065.0,STARLINK-5187,PAYLOAD,2023-11-10 00:26:58,15.08848506,9.49e-05,53.2165,202.7872,110.1806,249.9289,0.00028827,4.304e-05,0.0,0 STARLINK-5187,1 54065U 22136Q   23314.01872895  .00004304  00000-0  28827-3 0  9998,2 54065  53.2165 202.7872 0000949 110.1806 249.9289 15.08848506 58901,6917.854,95.437,540.376,539.063,0.0
54065.0,STARLINK-5187,PAYLOAD,2023-11-10 09:59:17,15.08836776,0.0001231,53.2167,201.0008,104.1958,255.9171,1.2119e-05,-9.5e-07,0.0,0 STARLINK-5187,1 54065U 22136Q   23314.41617204 -.00000095  00000-0  12119-4 0  9995,2 54065  53.2167 201.0008 0001231 104.1958 255.9171 15.08836776 58961,6917.89,95.438,540.607,538.904,0.0
54065.0,STARLINK-5187,PAYLOAD,2023-11-10 22:42:22,15.08837535,9.89e-05,53.2163,198.6198,105.2617,254.8484,6.574e-05,7.59e-06,0.0,0 STARLINK-5187,1 54065U 22136Q   23314.94609273  .00000759  00000-0  65740-4 0  9994,2 54065  53.2163 198.6198 0000989 105.2617 254.8484 15.08837535 58566,6917.888,95.438,540.437,539.069,0.0
54065.0,STARLINK-5187,PAYLOAD,2023-11-11 09:50:04,15.08842245,9.96e-05,53.2158,196.5389,96.5747,263.5359,0.00013517,1.864e-05,0.0,0 STARLINK-5187,1 54065U 22136Q   23315.40977157  .00001864  00000-0  13517-3 0  9997,2 54065  53.2158 196.5389 0000996  96.5747 263.5359 15.08842245 58633,6917.874,95.437,540.428,539.05,0.0
54065.0,STARLINK-5187,PAYLOAD,2023-11-11 20:57:46,15.08841184,0.0001125,53.2162,194.4565,115.5515,244.5594,0.00011981,1.62e-05,0.0,0 STARLINK-5187,1 54065U 22136Q   23315.87345316  .00001620  00000-0  11981-3 0  9997,2 54065  53.2162 194.4565 0001125 115.5515 244.5594 15.08841184 58700,6917.877,95.437,540.52,538.964,0.0
54065.0,STARLINK-5187,PAYLOAD,2023-11-12 01:43:55,15.08844865,0.0001108,53.2161,193.5644,113.6091,246.5018,0.00013631,1.883e-05,0.0,0 STARLINK-5187,1 54065U 22136Q   23316.07217146  .00001883  00000-0  13631-3 0  9994,2 54065  53.2161 193.5644 0001108 113.6091 246.5018 15.08844865 59215,6917.866,95.437,540.497,538.964,0.0
54065.0,STARLINK-5187,PAYLOAD,2023-11-12 22:23:56,15.08844701,0.0001211,53.2164,189.6974,110.0066,250.1057,0.00017321,2.47e-05,0.0,0 STARLINK-5187,1 54065U 22136Q   23316.93329172  .00002470  00000-0  17321-3 0  9995,2 54065  53.2164 189.6974 0001211 110.0066 250.1057 15.08844701 58861,6917.866,95.437,540.569,538.893,0.0
54065.0,STARLINK-5187,PAYLOAD,2023-11-13 22:14:44,15.08836526,0.000136,53.2169,185.2383,86.1364,273.9783,-1.7184e-05,-5.61e-06,0.0,0 STARLINK-5187,1 54065U 22136Q   23317.92689837 -.00000561  00000-0 -17184-4 0  9991,2 54065  53.2169 185.2383 0001360  86.1364 273.9783 15.08836526 59014,6917.891,95.438,540.697,538.815,0.0
54065.0,STARLINK-5187,PAYLOAD,2023-11-14 01:25:31,15.08808819,0.0001381,53.217,184.6454,93.5344,266.5806,0.00068362,0.00010599,0.0,0 STARLINK-5187,1 54065U 22136Q   23318.05939338  .00010599  00000-0  68362-3 0  9993,2 54065  53.2170 184.6454 0001381  93.5344 266.5806 15.08808819 59514,6917.976,95.44,540.796,538.885,0.0
54065.0,STARLINK-5187,PAYLOAD,2023-11-14 07:47:02,15.0883936,0.0001152,53.218,183.457,86.6382,273.4742,-3.3302e-05,-8.18e-06,0.0,0 STARLINK-5187,1 54065U 22136Q   23318.32434006 -.00000818  00000-0 -33302-4 0  9997,2 54065  53.2180 183.4570 0001152  86.6382 273.4742 15.08839360 59557,6917.882,95.438,540.544,538.95,0.0
54065.0,STARLINK-5187,PAYLOAD,2023-11-14 14:08:35,15.08837529,0.0001112,53.218,182.2664,92.2485,267.8635,7.15e-05,8.5e-06,0.0,0 STARLINK-5187,1 54065U 22136Q   23318.58929966  .00000850  00000-0  71500-4 0  9995,2 54065  53.2180 182.2664 0001112  92.2485 267.8635 15.08837529 59116,6917.888,95.438,540.522,538.984,0.0
54065.0,STARLINK-5187,PAYLOAD,2023-11-14 22:05:31,15.08840594,0.0001029,53.2166,180.7797,96.508,263.6029,-2.8121e-05,-7.35e-06,0.0,0 STARLINK-5187,1 54065U 22136Q   23318.92050048 -.00000735  00000-0 -28121-4 0  9994,2 54065  53.2166 180.7797 0001029  96.5080 263.6029 15.08840594 59167,6917.879,95.438,540.455,539.032,0.0
54065.0,STARLINK-5187,PAYLOAD,2023-11-15 13:59:22,15.08839409,0.00019,53.2167,177.8065,95.5019,264.619,0.00011535,1.548e-05,0.0,0 STARLINK-5187,1 54065U 22136Q   23319.58289987  .00001548  00000-0  11535-3 0  9994,2 54065  53.2167 177.8065 0001900  95.5019 264.6190 15.08839409 59266,6917.882,95.438,541.062,538.433,0.0
54065.0,STARLINK-5187,PAYLOAD,2023-11-15 21:56:17,15.08845663,0.0001678,53.2158,176.32,95.8009,264.3175,0.00015834,2.233e-05,0.0,0 STARLINK-5187,1 54065U 22136Q   23319.91409467  .00002233  00000-0  15834-3 0  9996,2 54065  53.2158 176.3200 0001678  95.8009 264.3175 15.08845663 59310,6917.863,95.437,540.889,538.567,0.0
54065.0,STARLINK-5187,PAYLOAD,2023-11-15 23:31:40,15.08845336,0.0001305,53.2151,176.0222,91.0915,269.0227,0.00017263,2.461e-05,0.0,0 STARLINK-5187,1 54065U 22136Q   23319.98033484  .00002461  00000-0  17263-3 0  9996,2 54065  53.2151 176.0222 0001305  91.0915 269.0227 15.08845336 59323,6917.864,95.437,540.632,538.826,0.0
54065.0,STARLINK-5187,PAYLOAD,2023-11-16 23:22:27,15.08874271,0.0001666,53.2116,171.5612,76.1083,284.0095,-0.00053449,-8.793e-05,0.0,0 STARLINK-5187,1 54065U 22136Q   23320.97392892 -.00008793  00000-0 -53449-3 0  9990,2 54065  53.2116 171.5612 0001666  76.1083 284.0095 15.08874271 59956,6917.776,95.435,540.793,538.488,0.0
54065.0,STARLINK-5187,PAYLOAD,2023-11-17 07:19:24,15.08837137,0.0001693,53.2165,170.0746,88.6162,271.5024,4.2833e-05,3.94e-06,0.0,0 STARLINK-5187,1 54065U 22136Q   23321.30514429  .00000394  00000-0  42833-4 0  9993,2 54065  53.2165 170.0746 0001693  88.6162 271.5024 15.08837137 60009,6917.889,95.438,540.925,538.583,0.0
54065.0,STARLINK-5187,PAYLOAD,2023-11-17 13:40:56,15.08840385,0.000156,53.2143,168.8855,86.3801,273.737,1.2246e-05,-9.3e-07,0.0,0 STARLINK-5187,1 54065U 22136Q   23321.57010272 -.00000093  00000-0  12246-4 0  9991,2 54065  53.2143 168.8855 0001560  86.3801 273.7370 15.08840385 59565,6917.879,95.438,540.823,538.665,0.0
54065.0,STARLINK-5187,PAYLOAD,2023-11-17 20:02:29,15.08839794,0.0001553,53.2148,167.6961,86.2305,273.8865,5.2291e-07,-2.8e-06,0.0,0 STARLINK-5187,1 54065U 22136Q   23321.83506332 -.00000280  00000-0  52291-6 0  9991,2 54065  53.2148 167.6961 0001553  86.2305 273.8865 15.08839794 59602,6917.881,95.438,540.82,538.672,0.0
54065.0,STARLINK-5187,PAYLOAD,2023-11-18 07:10:11,15.08838773,0.000167,53.2166,165.6151,85.3304,274.7879,6.4496e-05,7.39e-06,0.0,0 STARLINK-5187,1 54065U 22136Q   23322.29874307  .00000739  00000-0  64496-4 0  9998,2 54065  53.2166 165.6151 0001670  85.3304 274.7879 15.08838773 59678,6917.884,95.438,540.904,538.594,0.0
54065.0,STARLINK-5187,PAYLOAD,2023-11-18 19:53:16,15.08842855,0.000151,53.2163,163.2361,85.8446,274.2718,0.0001235,1.678e-05,0.0,0 STARLINK-5187,1 54065U 22136Q   23322.82865800  .00001678  00000-0  12350-3 0  9999,2 54065  53.2163 163.2361 0001510  85.8446 274.2718 15.08842855 60234,6917.872,95.437,540.781,538.692,0.0
54065.0,STARLINK-5187,PAYLOAD,2023-11-19 13:22:30,15.08841676,0.000155,53.2158,159.9649,85.9241,274.1928,9.4686e-05,1.219e-05,0.0,0 STARLINK-5187,1 54065U 22136Q   23323.55729912  .00001219  00000-0  94686-4 0  9997,2 54065  53.2158 159.9649 0001550  85.9241 274.1928 15.08841676 59866,6917.875,95.437,540.813,538.668,0.0
54065.0,STARLINK-5187,PAYLOAD,2023-11-19 19:44:03,15.08843336,0.0001516,53.2165,158.7753,87.464,272.6525,0.0001105,1.471e-05,0.0,0 STARLINK-5187,1 54065U 22136Q   23323.82225748  .00001471  00000-0  11050-3 0  9998,2 54065  53.2165 158.7753 0001516  87.4640 272.6525 15.08843336 59905,6917.87,95.437,540.784,538.686,0.0
54065.0,STARLINK-5187,PAYLOAD,2023-11-20 00:30:12,15.0884374,0.0001514,53.2166,157.8828,89.753,270.3635,7.7137e-05,9.4e-06,0.0,0 STARLINK-5187,1 54065U 22136Q   23324.02097692  .00000940  00000-0  77137-4 0  9995,2 54065  53.2166 157.8828 0001514  89.7530 270.3635 15.08843740 60414,6917.869,95.437,540.781,538.687,0.0
54065.0,STARLINK-5187,PAYLOAD,2023-11-20 13:13:17,15.08841797,0.0001577,53.2171,155.5035,91.4079,268.7094,-3.868e-07,-2.94e-06,0.0,0 STARLINK-5187,1 54065U 22136Q   23324.55090029 -.00000294  00000-0 -38680-6 0  9996,2 54065  53.2171 155.5035 0001577  91.4079 268.7094 15.08841797 60018,6917.875,95.437,540.831,538.649,0.0
54065.0,STARLINK-5187,PAYLOAD,2023-11-20 19:34:50,15.08843341,0.0001571,53.2171,154.3141,91.3324,268.7848,7.6593e-06,-1.66e-06,0.0,0 STARLINK-5187,1 54065U 22136Q   23324.81585802 -.00000166  00000-0  76593-5 0  9994,2 54065  53.2171 154.3141 0001571  91.3324 268.7848 15.08843341 60057,6917.87,95.437,540.822,538.648,0.0
54065.0,STARLINK-5187,PAYLOAD,2023-11-21 13:04:04,15.08839981,0.0001574,53.2172,151.0434,91.5906,268.5267,1.6089e-05,-3.2e-07,0.0,0 STARLINK-5187,1 54065U 22136Q   23325.54450013 -.00000032  00000-0  16089-4 0  9995,2 54065  53.2172 151.0434 0001574  91.5906 268.5267 15.08839981 60168,6917.88,95.438,540.834,538.657,0.0
54065.0,STARLINK-5187,PAYLOAD,2023-11-21 17:50:14,15.08840586,0.0001573,53.2172,150.1513,91.5609,268.5563,1.9886e-05,2.8e-07,0.0,0 STARLINK-5187,1 54065U 22136Q   23325.74321951  .00000028  00000-0  19886-4 0  9997,2 54065  53.2172 150.1513 0001573  91.5609 268.5563 15.08840586 60190,6917.879,95.438,540.832,538.655,0.0
54065.0,STARLINK-5187,PAYLOAD,2023-11-21 22:36:23,15.08842852,0.0001561,53.2172,149.2592,91.0988,269.0183,3.595e-05,2.84e-06,0.0,0 STARLINK-5187,1 54065U 22136Q   23325.94193783  .00000284  00000-0  35950-4 0  9993,2 54065  53.2172 149.2592 0001561  91.0988 269.0183 15.08842852 60707,6917.872,95.437,540.817,538.657,0.0
54065.0,STARLINK-5187,PAYLOAD,2023-11-22 11:19:28,15.08837512,0.0001547,53.2171,146.8806,91.375,268.7419,4.0603e-05,3.58e-06,0.0,0 STARLINK-5187,1 54065U 22136Q   23326.47186149  .00000358  00000-0  40603-4 0  9993,2 54065  53.2171 146.8806 0001547  91.3750 268.7419 15.08837512 60302,6917.888,95.438,540.823,538.683,0.0
